NORAD_CAT_ID,OBJECT_NAME,OBJECT_TYPE,EPOCH,MEAN_MOTION,ECCENTRICITY,INCLINATION,RA_OF_ASC_NODE,ARG_OF_PERICENTER,MEAN_ANOMALY,BSTAR,MEAN_MOTION_DOT,MEAN_MOTION_DDOT,TLE_LINE0,TLE_LINE1,TLE_LINE2,SEMIMAJOR_AXIS,PERIOD,APOGEE,PERIGEE,DECAYED
55294.0,STARLINK-5286,PAYLOAD,2023-10-04 21:10:07,14.98334539,0.0003015,69.9983,120.2943,272.0403,88.0411,0.00010412,1.15e-05,0.0,0 STARLINK-5286,1 55294U 23010AB  23277.88203626  .00001150  00000-0  10412-3 0  9995,2 55294  69.9983 120.2943 0003015 272.0403  88.0411 14.98334539 39945,6950.179,96.107,574.139,569.948,0.0
55294.0,STARLINK-5286,PAYLOAD,2023-10-05 06:46:56,14.98331251,0.0002977,69.9982,119.2845,270.0872,89.9945,6.9074e-05,7.31e-06,0.0,0 STARLINK-5286,1 55294U 23010AB  23278.28259879  .00000731  00000-0  69074-4 0  9994,2 55294  69.9982 119.2845 0002977 270.0872  89.9945 14.98331251 40006,6950.189,96.107,574.123,569.985,0.0
55294.0,STARLINK-5286,PAYLOAD,2023-10-05 19:36:01,14.9832852,0.0003066,69.998,117.9376,268.2814,91.7994,-1.2001e-05,-2.36e-06,0.0,0 STARLINK-5286,1 55294U 23010AB  23278.81668236 -.00000236  00000-0 -12001-4 0  9994,2 55294  69.9980 117.9376 0003066 268.2814  91.7994 14.98328520 39786,6950.197,96.107,574.193,569.932,0.0
55294.0,STARLINK-5286,PAYLOAD,2023-10-05 21:12:09,14.9832916,0.0003061,69.9979,117.7691,268.4038,91.677,-4.0675e-06,-1.42e-06,0.0,0 STARLINK-5286,1 55294U 23010AB  23278.88344176 -.00000142  00000-0 -40675-5 0  9990,2 55294  69.9979 117.7691 0003061 268.4038  91.6770 14.98329160 40095,6950.195,96.107,574.188,569.933,0.0
55294.0,STARLINK-5286,PAYLOAD,2023-10-06 13:13:30,14.98329574,0.0003089,69.9979,116.0856,269.1981,90.8824,-5.8478e-05,-7.91e-06,0.0,0 STARLINK-5286,1 55294U 23010AB  23279.55104338 -.00000791  00000-0 -58478-4 0  9998,2 55294  69.9979 116.0856 0003089 269.1981  90.8824 14.98329574 40196,6950.194,96.107,574.206,569.912,0.0
55294.0,STARLINK-5286,PAYLOAD,2023-10-06 21:14:10,14.9833115,0.0003091,69.9979,115.2438,269.1634,90.9171,-3.5276e-05,-5.14e-06,0.0,0 STARLINK-5286,1 55294U 23010AB  23279.88484160 -.00000514  00000-0 -35276-4 0  9992,2 55294  69.9979 115.2438 0003091 269.1634  90.9171 14.98331150 39941,6950.189,96.107,574.203,569.906,0.0
55294.0,STARLINK-5286,PAYLOAD,2023-10-07 13:15:30,14.98328521,0.0003111,69.9979,113.5602,268.7462,91.3341,9.3706e-05,1.025e-05,0.0,0 STARLINK-5286,1 55294U 23010AB  23280.55243966  .00001025  00000-0  93706-4 0  9993,2 55294  69.9979 113.5602 0003111 268.7462  91.3341 14.98328521 40340,6950.197,96.107,574.225,569.9,0.0
55294.0,STARLINK-5286,PAYLOAD,2023-10-07 21:16:10,14.98332598,0.0003134,69.998,112.7189,269.5037,90.5763,8.5802e-05,9.31e-06,0.0,0 STARLINK-5286,1 55294U 23010AB  23280.88623769  .00000931  00000-0  85802-4 0  9995,2 55294  69.9980 112.7189 0003134 269.5037  90.5763 14.98332598 40398,6950.185,96.107,574.228,569.872,0.0
55294.0,STARLINK-5286,PAYLOAD,2023-10-07 22:52:18,14.98333665,0.0003133,69.998,112.5505,269.5292,90.5508,9.6173e-05,1.055e-05,0.0,0 STARLINK-5286,1 55294U 23010AB  23280.95299668  .00001055  00000-0  96173-4 0  9991,2 55294  69.9980 112.5505 0003133 269.5292  90.5508 14.98333665 40102,6950.182,96.107,574.224,569.869,0.0
55294.0,STARLINK-5286,PAYLOAD,2023-10-08 13:17:31,14.98330424,0.0003023,69.9984,111.0354,269.9345,90.1468,7.8198e-05,8.4e-06,0.0,0 STARLINK-5286,1 55294U 23010AB  23281.55383926  .00000840  00000-0  78198-4 0  9997,2 55294  69.9984 111.0354 0003023 269.9345  90.1468 14.98330424 40496,6950.192,96.107,574.158,569.956,0.0
55294.0,STARLINK-5286,PAYLOAD,2023-10-08 21:18:11,14.98332829,0.0003072,69.9982,110.1934,270.4701,89.6106,8.559e-05,9.28e-06,0.0,0 STARLINK-5286,1 55294U 23010AB  23281.88763734  .00000928  00000-0  85590-4 0  9993,2 55294  69.9982 110.1934 0003072 270.4701  89.6106 14.98332829 40544,6950.184,96.107,574.184,569.914,0.0
55294.0,STARLINK-5286,PAYLOAD,2023-10-08 22:54:19,14.98333292,0.0003068,69.9983,110.0251,270.5079,89.5728,8.9483e-05,9.75e-06,0.0,0 STARLINK-5286,1 55294U 23010AB  23281.95439687  .00000975  00000-0  89483-4 0  9995,2 55294  69.9983 110.0251 0003068 270.5079  89.5728 14.98333292 40252,6950.183,96.107,574.18,569.915,0.0
55294.0,STARLINK-5286,PAYLOAD,2023-10-09 13:19:32,14.98331111,0.0002982,69.9985,108.5102,270.3885,89.6933,4.1095e-06,-4.4e-07,0.0,0 STARLINK-5286,1 55294U 23010AB  23282.55523991 -.00000044  00000-0  41095-5 0  9990,2 55294  69.9985 108.5102 0002982 270.3885  89.6933 14.98331111 40648,6950.189,96.107,574.127,569.982,0.0
55294.0,STARLINK-5286,PAYLOAD,2023-10-09 21:20:12,14.98332538,0.0002963,69.9984,107.6686,270.2661,89.8158,1.8855e-05,1.32e-06,0.0,0 STARLINK-5286,1 55294U 23010AB  23282.88903822  .00000132  00000-0  18855-4 0  9995,2 55294  69.9984 107.6686 0002963 270.2661  89.8158 14.98332538 40694,6950.185,96.107,574.109,569.991,0.0
55294.0,STARLINK-5286,PAYLOAD,2023-10-09 22:56:20,14.98332631,0.0002962,69.9985,107.5003,270.3294,89.7526,1.9446e-05,1.39e-06,0.0,0 STARLINK-5286,1 55294U 23010AB  23282.95579804  .00000139  00000-0  19446-4 0  9996,2 55294  69.9985 107.5003 0002962 270.3294  89.7526 14.98332631 40400,6950.185,96.107,574.108,569.991,0.0
55294.0,STARLINK-5286,PAYLOAD,2023-10-10 13:21:33,14.98333251,0.0002945,69.9983,105.9857,267.693,92.3891,2.5754e-05,2.14e-06,0.0,0 STARLINK-5286,1 55294U 23010AB  23283.55663652  .00000214  00000-0  25754-4 0  9991,2 55294  69.9983 105.9857 0002945 267.6930  92.3891 14.98333251 40790,6950.183,96.107,574.095,570.001,0.0
55294.0,STARLINK-5286,PAYLOAD,2023-10-10 21:22:13,14.98333925,0.0002939,69.9985,105.1439,268.6926,91.3896,3.2763e-05,2.98e-06,0.0,0 STARLINK-5286,1 55294U 23010AB  23283.89043519  .00000298  00000-0  32763-4 0  9992,2 55294  69.9985 105.1439 0002939 268.6926  91.3896 14.98333925 40847,6950.181,96.107,574.088,570.003,0.0
55294.0,STARLINK-5286,PAYLOAD,2023-10-11 13:23:34,14.98327474,0.0003,69.9985,103.4609,270.5662,89.5153,1.3871e-05,7.2e-07,0.0,0 STARLINK-5286,1 55294U 23010AB  23284.55803952  .00000072  00000-0  13871-4 0  9990,2 55294  69.9985 103.4609 0003000 270.5662  89.5153 14.98327474 40641,6950.201,96.107,574.151,569.981,0.0
55294.0,STARLINK-5286,PAYLOAD,2023-10-12 13:25:35,14.98333261,0.0003042,69.9988,100.9358,270.8482,89.2328,3.2064e-05,2.9e-06,0.0,0 STARLINK-5286,1 55294U 23010AB  23285.55943514  .00000290  00000-0  32064-4 0  9997,2 55294  69.9988 100.9358 0003042 270.8482  89.2328 14.98333261 41098,6950.183,96.107,574.162,569.934,0.0
55294.0,STARLINK-5286,PAYLOAD,2023-10-12 19:50:07,14.98335139,0.0003036,69.9989,100.2625,270.7301,89.351,5.1276e-05,5.19e-06,0.0,0 STARLINK-5286,1 55294U 23010AB  23285.82647283  .00000519  00000-0  51276-4 0  9991,2 55294  69.9989 100.2625 0003036 270.7301  89.3510 14.98335139 40832,6950.177,96.107,574.152,569.932,0.0
55294.0,STARLINK-5286,PAYLOAD,2023-10-12 21:26:15,14.98335435,0.0003035,69.9989,100.0942,270.7563,89.3248,5.3982e-05,5.51e-06,0.0,0 STARLINK-5286,1 55294U 23010AB  23285.89323239  .00000551  00000-0  53982-4 0  9992,2 55294  69.9989 100.0942 0003035 270.7563  89.3248 14.98335435 41143,6950.176,96.107,574.15,569.932,0.0
55294.0,STARLINK-5286,PAYLOAD,2023-10-13 11:51:28,14.98328505,0.0003088,69.9987,98.5783,271.1244,88.9561,5.8712e-05,6.08e-06,0.0,0 STARLINK-5286,1 55294U 23010AB  23286.49407585  .00000608  00000-0  58712-4 0  9995,2 55294  69.9987  98.5783 0003088 271.1244  88.9561 14.98328505 40933,6950.198,96.107,574.209,569.916,0.0
55294.0,STARLINK-5286,PAYLOAD,2023-10-13 13:27:36,14.98328268,0.0003093,69.9987,98.41,271.1466,88.9339,5.478e-05,5.61e-06,0.0,0 STARLINK-5286,1 55294U 23010AB  23286.56083614  .00000561  00000-0  54780-4 0  9995,2 55294  69.9987  98.4100 0003093 271.1466  88.9339 14.98328268 41241,6950.198,96.107,574.213,569.914,0.0
55294.0,STARLINK-5286,PAYLOAD,2023-10-13 21:28:16,14.98332692,0.0003111,69.9987,97.5686,272.109,87.9712,6.4805e-05,6.8e-06,0.0,0 STARLINK-5286,1 55294U 23010AB  23286.89463325  .00000680  00000-0  64805-4 0  9993,2 55294  69.9987  97.5686 0003111 272.1090  87.9712 14.98332692 41290,6950.185,96.107,574.212,569.887,0.0
55294.0,STARLINK-5286,PAYLOAD,2023-10-14 13:29:36,14.98333197,0.0002989,69.9991,95.8851,272.9143,87.1674,2.2052e-05,1.7e-06,0.0,0 STARLINK-5286,1 55294U 23010AB  23287.56223340  .00000170  00000-0  22052-4 0  9991,2 55294  69.9991  95.8851 0002989 272.9143  87.1674 14.98333197 41390,6950.183,96.107,574.125,569.971,0.0
55294.0,STARLINK-5286,PAYLOAD,2023-10-14 19:54:09,14.98333647,0.0002988,69.9991,95.2118,273.0036,87.0781,2.6233e-05,2.2e-06,0.0,0 STARLINK-5286,1 55294U 23010AB  23287.82927246  .00000220  00000-0  26233-4 0  9997,2 55294  69.9991  95.2118 0002988 273.0036  87.0781 14.98333647 41132,6950.182,96.107,574.123,569.97,0.0
55294.0,STARLINK-5286,PAYLOAD,2023-10-14 21:30:17,14.98333697,0.0002986,69.9991,95.0434,273.054,87.0278,2.6482e-05,2.23e-06,0.0,0 STARLINK-5286,1 55294U 23010AB  23287.89603229  .00000223  00000-0  26482-4 0  9995,2 55294  69.9991  95.0434 0002986 273.0540  87.0278 14.98333697 41449,6950.181,96.107,574.122,569.971,0.0
55294.0,STARLINK-5286,PAYLOAD,2023-10-15 11:55:30,14.98327619,0.0002959,69.9991,93.5284,273.2408,86.8412,6.9377e-06,-1e-07,0.0,0 STARLINK-5286,1 55294U 23010AB  23288.49687645 -.00000010  00000-0  69377-5 0  9992,2 55294  69.9991  93.5284 0002959 273.2408  86.8412 14.98327619 41231,6950.2,96.107,574.122,570.009,0.0
55294.0,STARLINK-5286,PAYLOAD,2023-10-15 13:31:38,14.98327646,0.0002962,69.9991,93.3601,273.2313,86.8507,6.88e-06,-1.1e-07,0.0,0 STARLINK-5286,1 55294U 23010AB  23288.56363650 -.00000011  00000-0  68800-5 0  9998,2 55294  69.9991  93.3601 0002962 273.2313  86.8507 14.98327646 41540,6950.2,96.107,574.124,570.007,0.0
55294.0,STARLINK-5286,PAYLOAD,2023-10-15 21:32:18,14.98327306,0.0002915,69.9993,92.5189,272.548,87.5346,1.6503e-05,1.04e-06,0.0,0 STARLINK-5286,1 55294U 23010AB  23288.89743694  .00000104  00000-0  16503-4 0  9998,2 55294  69.9993  92.5189 0002915 272.5480  87.5346 14.98327306 41596,6950.201,96.107,574.092,570.04,0.0
